COSMOS 2413 (712)       
1 28509U 04053B   16010.40361185  .00000096  00000-0  00000+0 0  9996
2 28509  63.1322 195.7521 0005615 159.8962 200.0359  2.13101787 85912
COSMOS 2419 (714)       
1 28915U 05050A   16009.56549655 -.00000000  00000-0  00000+0 0  9996
2 28915  65.2509  83.5579 0014687 348.1961  88.0403  2.13112863 78150
COSMOS 2425 (716)       
1 29670U 06062A   16010.38238663 -.00000032  00000-0  10000-3 0  9995
2 29670  65.7002 322.4919 0023064 340.6721  64.2641  2.13104960 70370
COSMOS 2426 (717)       
1 29671U 06062B   16009.74182615 -.00000035  00000-0  10000-3 0  9992
2 29671  65.7176 322.5913 0015538 172.5850 322.9724  2.13103023 70364
COSMOS 2424 (715)       
1 29672U 06062C   16010.44014152 -.00000032  00000-0  10000-3 0  9999
2 29672  65.7019 322.4989 0014901 171.5302 316.5300  2.13102106 70378
COSMOS 2433 (720)       
1 32275U 07052A   16009.22775767 -.00000002  00000-0  10000-3 0  9999
2 32275  65.2666  83.3352 0003383 246.9846 183.9321  2.13104994 63865
COSMOS 2432 (719)       
1 32276U 07052B   16009.69483961  .00000001  00000-0  10000-3 0  9991
2 32276  65.2788  83.3826 0011159 332.8185  50.6221  2.13104186 63871
COSMOS 2434 (721)       
1 32393U 07065A   16010.16306022 -.00000034  00000-0  00000+0 0  9993
2 32393  65.3199 321.8977 0001424 105.9758 215.8272  2.13102745 62581
COSMOS 2436 (723)       
1 32395U 07065C   16010.15325294 -.00000034  00000-0  10000-3 0  9991
2 32395  65.3329 321.9380 0018338 346.9428  59.3233  2.13102807 62521
COSMOS 2443 (725)       
1 33379U 08046B   16009.75794955  .00000001  00000-0  10000-3 0  9995
2 33379  65.1954  82.7498 0018925 186.9613 197.7561  2.13101452 56741
COSMOS 2456 (730)       
1 36111U 09070A   16009.58507914  .00000106  00000-0  00000+0 0  9999
2 36111  64.1864 201.5333 0003575 350.1561  57.0035  2.13102947 47247
COSMOS 2457 (733)       
1 36112U 09070B   16009.43870838  .00000107  00000-0  00000+0 0  9993
2 36112  64.1683 201.4691 0007401 145.7741 280.1150  2.13101613 47249
COSMOS 2458 (734)       
1 36113U 09070C   16009.72531355  .00000105  00000-0  10000-3 0  9997
2 36113  64.1735 201.4641 0003133  60.1189 272.8816  2.13101966 47245
COSMOS 2459 (731)       
1 36400U 10007A   16009.72707435  .00000001  00000-0  10000-3 0  9997
2 36400  65.1741  82.4894 0027501 351.5282 329.2186  2.13102258 45593
COSMOS 2461 (735)       
1 36401U 10007B   16010.45574554  .00000004  00000-0  10000-3 0  9997
2 36401  65.1669  82.4479 0005119  81.1792 349.1298  2.13102227 45619
COSMOS 2460 (732)       
1 36402U 10007C   16010.07471076  .00000003  00000-0  10000-3 0  9990
2 36402  65.1572  82.4393 0001209 214.5077 325.6067  2.13101927 45600
COSMOS 2466 (738)       
1 37137U 10041A   16009.57606718 -.00000037  00000-0  10000-3 0  9998
2 37137  64.9039 322.1006 0018499 157.6393 297.4643  2.13102502 41672
COSMOS 2465 (737)       
1 37138U 10041B   16010.09773968 -.00000035  00000-0  00000+0 0  9993
2 37138  64.9208 322.1531 0033409 171.7979 146.0385  2.13102704 41675
COSMOS 2464 (736)       
1 37139U 10041C   16009.73110804 -.00000036  00000-0  00000+0 0  9998
2 37139  64.9226 322.1577 0022385   7.6589 163.4963  2.13102902 41676
COSMOS 2471 (701K)      
1 37372U 11009A   16010.15988860  .00000003  00000-0  00000+0 0  9998
2 37372  65.1550  82.3863 0008632 232.2616 145.2544  2.13102952 37883
COSMOS 2474 (742)       
1 37829U 11055A   16009.48399163  .00000108  00000-0  00000+0 0  9998
2 37829  64.5107 201.8834 0005580 249.0508 302.6720  2.13101918 33233
COSMOS 2476 (744)       
1 37867U 11064A   16010.36112750  .00000102  00000-0  00000+0 0  9998
2 37867  64.4907 201.9389 0014383 245.5100 304.8831  2.13102034 32605
COSMOS 2477 (745)       
1 37868U 11064B   16009.69071565  .00000106  00000-0  00000+0 0  9995
2 37868  64.4990 202.0003 0012423 246.6037 328.8796  2.13101935 32545
COSMOS 2475 (743)       
1 37869U 11064C   16010.41486856  .00000102  00000-0  00000+0 0  9997
2 37869  64.5065 201.9619 0018085 278.8680  88.2163  2.13102165 32576
COSMOS 2478 (746)       
1 37938U 11071A   16009.45548344 -.00000001  00000-0  00000+0 0  9994
2 37938  65.1806  82.6285 0014382 239.2642  78.9983  2.13088396 32150
COSMOS 2485 (747)       
1 39155U 13019A   16010.29400324  .00000103  00000-0  00000+0 0  9992
2 39155  64.6598 201.8565 0014730 239.2554 304.8401  2.13102091 21074
COSMOS 2492 (754)       
1 39620U 14012A   16010.02606273  .00000012  00000-0  24067+2 0  9995
2 39620  65.0456  82.4515 0014904 329.3038  41.9318  2.13103809 14029
COSMOS 2500 (755)       
1 40001U 14032A   16009.75154681  .00000000  00000-0  00000+0 0  9997
2 40001  64.9861  82.4974 0007319 210.3844 174.2736  2.13103055 12235
COSMOS 2501 (702K)      
1 40315U 14075A   16009.73732492 -.00000037  00000-0  00000+0 0  9993
2 40315  64.6910 323.6646 0018337 241.0097 294.7967  2.13101468  8633
